[{"OBJECT_NAME":"STARLINK-4527","OBJECT_ID":"2022-097BA","EPOCH":"2026-03-09T07:52:01.183008","MEAN_MOTION":15.08855683,"ECCENTRICITY":0.00015807,"INCLINATION":53.2155,"RA_OF_ASC_NODE":105.4282,"ARG_OF_PERICENTER":97.6291,"MEAN_ANOMALY":262.4881,"EPHEMERIS_TYPE":0,"CLASSIFICATION_TYPE":"U","NORAD_CAT_ID":53436,"ELEMENT_SET_NO":999,"REV_AT_EPOCH":19873,"BSTAR":0.00018855289,"MEAN_MOTION_DOT":2.715e-5,"MEAN_MOTION_DDOT":0},{"OBJECT_NAME":"DISKSAT A","OBJECT_ID":"2025-305D","EPOCH":"2026-03-09T13:08:58.223040","MEAN_MOTION":15.07741062,"ECCENTRICITY":0.0004082,"INCLINATION":45.0023,"RA_OF_ASC_NODE":251.6019,"ARG_OF_PERICENTER":318.1929,"MEAN_ANOMALY":41.8634,"EPHEMERIS_TYPE":0,"CLASSIFICATION_TYPE":"U","NORAD_CAT_ID":67222,"ELEMENT_SET_NO":999,"REV_AT_EPOCH":1226,"BSTAR":0.00090452,"MEAN_MOTION_DOT":0.00013824,"MEAN_MOTION_DDOT":0}]
