STARLINK-4527           
1 53436U 22097BA  26068.32779147  .00002715  00000+0  18855-3 0  9997
2 53436  53.2155 105.4282 0001580  97.6291 262.4881 15.08855683198732
DISKSAT A               
1 67222U 25305D   26068.54789610  .00013824  00000+0  90452-3 0  9996
2 67222  45.0023 251.6019 0004082 318.1929  41.8634 15.07741062 12266
